{"type": "FeatureCollection", "features": [ {"type": "Feature", "properties": {"norad_id": 66846, "name": "STARLINK-36055", "group": "last-30-days", "lat": 35.29251443444159, "lon": -159.90393131742448, "alt_km": 381.16212703227575, "timestamp": "2025-12-17T13:48:36.280719+00:00", "meta": {"OBJECT_NAME": "STARLINK-36055", "OBJECT_ID": "2025-280AB", "EPOCH": "2025-12-17T08:00:04.999680", "MEAN_MOTION": 15.62744955, "ECCENTRICITY": 0.00035989, "INCLINATION": 69.9992, "RA_OF_ASC_NODE": 185.827, "ARG_OF_PERICENTER": 276.1378, "MEAN_ANOMALY": 201.0961, "EPHEMERIS_TYPE": 0, "CLASSIFICATION_TYPE": "U", "NORAD_CAT_ID": 66846, "ELEMENT_SET_NO": 999, "REV_AT_EPOCH": 363, "BSTAR": -0.024122663, "MEAN_MOTION_DOT": -0.01924178, "MEAN_MOTION_DDOT": 0}, "tle": {"line1": "1 66846U 25280AB  25351.33339120 -.01924178  00000+0 -24123-1 0  9993", "line2": "2 66846  69.9992 185.8270 0003598 276.1378 201.0961 15.62744955  3635"}}, "geometry": {"type": "Point", "coordinates": [-159.90393131742448, 35.29251443444159]}}, {"type": "Feature", "properties": {"norad_id": 66847, "name": "STARLINK-36061", "group": "last-30-days", "lat": 37.03161267205995, "lon": -158.89654503464885, "alt_km": 380.9693662730451, "timestamp": "2025-12-17T13:48:36.280731+00:00", "meta": {"OBJECT_NAME": "STARLINK-36061", "OBJECT_ID": "2025-280AC", "EPOCH": "2025-12-17T06:00:00.999648", "MEAN_MOTION": 15.63165712, "ECCENTRICITY": 0.00037052, "INCLINATION": 69.9986, "RA_OF_ASC_NODE": 186.0573, "ARG_OF_PERICENTER": 270.7822, "MEAN_ANOMALY": 99.3443, "EPHEMERIS_TYPE": 0, "CLASSIFICATION_TYPE": "U", "NORAD_CAT_ID": 66847, "ELEMENT_SET_NO": 999, "REV_AT_EPOCH": 357, "BSTAR": -0.025032166, "MEAN_MOTION_DOT": -0.02017332, "MEAN_MOTION_DDOT": 0}, "tle": {"line1": "1 66847U 25280AC  25351.25001157 -.02017332  00000+0 -25032-1 0  9997", "line2": "2 66847  69.9986 186.0573 0003705 270.7822  99.3443 15.63165712  3577"}}, "geometry": {"type": "Point", "coordinates": [-158.89654503464885, 37.03161267205995]}}, {"type": "Feature", "properties": {"norad_id": 66848, "name": "STARLINK-36091", "group": "last-30-days", "lat": 33.42584764762942, "lon": 137.72998832521193, "alt_km": 329.7884096190146, "timestamp": "2025-12-17T13:48:36.280741+00:00", "meta": {"OBJECT_NAME": "STARLINK-36091", "OBJECT_ID": "2025-281A", "EPOCH": "2025-12-17T06:00:00.999648", "MEAN_MOTION": 15.79518198, "ECCENTRICITY": 0.00014392, "INCLINATION": 43.0004, "RA_OF_ASC_NODE": 94.6197, "ARG_OF_PERICENTER": 271.7549, "MEAN_ANOMALY": 90.0818, "EPHEMERIS_TYPE": 0, "CLASSIFICATION_TYPE": "U", "NORAD_CAT_ID": 66848, "ELEMENT_SET_NO": 999, "REV_AT_EPOCH": 212, "BSTAR": -0.0074854665, "MEAN_MOTION_DOT": -0.01241974, "MEAN_MOTION_DDOT": 0}, "tle": {"line1": "1 66848U 25281A   25351.25001157 -.01241974  00000+0 -74855-2 0  9997", "line2": "2 66848  43.0004  94.6197 0001439 271.7549  90.0818 15.79518198  2128"}}, "geometry": {"type": "Point", "coordinates": [137.72998832521193, 33.42584764762942]}}, {"type": "Feature", "properties": {"norad_id": 66849, "name": "STARLINK-36102", "group": "last-30-days", "lat": 34.451942400890715, "lon": 140.03897722457083, "alt_km": 329.713018220712, "timestamp": "2025-12-17T13:48:36.280750+00:00", "meta": {"OBJECT_NAME": "STARLINK-36102", "OBJECT_ID": "2025-281B", "EPOCH": "2025-12-17T08:00:04.999680", "MEAN_MOTION": 15.79262757, "ECCENTRICITY": 0.00011596, "INCLINATION": 43.0004, "RA_OF_ASC_NODE": 94.1054, "ARG_OF_PERICENTER": 275.2127, "MEAN_ANOMALY": 203.4977, "EPHEMERIS_TYPE": 0, "CLASSIFICATION_TYPE": "U", "NORAD_CAT_ID": 66849, "ELEMENT_SET_NO": 999, "REV_AT_EPOCH": 213, "BSTAR": -0.0078028871, "MEAN_MOTION_DOT": -0.01274821, "MEAN_MOTION_DDOT": 0}, "tle": {"line1": "1 66849U 25281B   25351.33339120 -.01274821  00000+0 -78029-2 0  9995", "line2": "2 66849  43.0004  94.1054 0001159 275.2127 203.4977 15.79262757  2130"}}, "geometry": {"type": "Point", "coordinates": [140.03897722457083, 34.451942400890715]}}, {"type": "Feature", "properties": {"norad_id": 66850, "name": "STARLINK-36105", "group": "last-30-days", "lat": 35.571228707753896, "lon": 142.74986085446335, "alt_km": 330.0623371294532, "timestamp": "2025-12-17T13:48:36.280760+00:00", "meta": {"OBJECT_NAME": "STARLINK-36105", "OBJECT_ID": "2025-281C", "EPOCH": "2025-12-17T08:00:04.999680", "MEAN_MOTION": 15.79158128, "ECCENTRICITY": 0.00014665, "INCLINATION": 43.0005, "RA_OF_ASC_NODE": 94.0991, "ARG_OF_PERICENTER": 273.2058, "MEAN_ANOMALY": 208.0853, "EPHEMERIS_TYPE": 0, "CLASSIFICATION_TYPE": "U", "NORAD_CAT_ID": 66850, "ELEMENT_SET_NO": 999, "REV_AT_EPOCH": 213, "BSTAR": -0.0079118623, "MEAN_MOTION_DOT": -0.01285188, "MEAN_MOTION_DDOT": 0}, "tle": {"line1": "1 66850U 25281C   25351.33339120 -.01285188  00000+0 -79119-2 0  9996", "line2": "2 66850  43.0005  94.0991 0001466 273.2058 208.0853 15.79158128  2134"}}, "geometry": {"type": "Point", "coordinates": [142.74986085446335, 35.571228707753896]}}, {"type": "Feature", "properties": {"norad_id": 66851, "name": "STARLINK-36094", "group": "last-30-days", "lat": 36.51039244378222, "lon": 145.21298768927838, "alt_km": 329.9340165922804, "timestamp": "2025-12-17T13:48:36.280772+00:00", "meta": {"OBJECT_NAME": "STARLINK-36094", "OBJECT_ID": "2025-281D", "EPOCH": "2025-12-17T06:00:00.999648", "MEAN_MOTION": 15.79324875, "ECCENTRICITY": 0.00013975, "INCLINATION": 43.0001, "RA_OF_ASC_NODE": 94.6011, "ARG_OF_PERICENTER": 273.9689, "MEAN_ANOMALY": 94.9752, "EPHEMERIS_TYPE": 0, "CLASSIFICATION_TYPE": "U", "NORAD_CAT_ID": 66851, "ELEMENT_SET_NO": 999, "REV_AT_EPOCH": 212, "BSTAR": -0.0077387738, "MEAN_MOTION_DOT": -0.01268927, "MEAN_MOTION_DDOT": 0}, "tle": {"line1": "1 66851U 25281D   25351.25001157 -.01268927  00000+0 -77388-2 0  9992", "line2": "2 66851  43.0001  94.6011 0001397 273.9689  94.9752 15.79324875  2123"}}, "geometry": {"type": "Point", "coordinates": [145.21298768927838, 36.51039244378222]}}, {"type": "Feature", "properties": {"norad_id": 66852, "name": "STARLINK-35992", "group": "last-30-days", "lat": 37.38509328495719, "lon": 147.69880752068718, "alt_km": 330.1113067970864, "timestamp": "2025-12-17T13:48:36.280781+00:00", "meta": {"OBJECT_NAME": "STARLINK-35992", "OBJECT_ID": "2025-281E", "EPOCH": "2025-12-17T08:00:04.999680", "MEAN_MOTION": 15.79057703, "ECCENTRICITY": 0.0001474, "INCLINATION": 43.0006, "RA_OF_ASC_NODE": 94.0878, "ARG_OF_PERICENTER": 274.9715, "MEAN_ANOMALY": 210.7861, "EPHEMERIS_TYPE": 0, "CLASSIFICATION_TYPE": "U", "NORAD_CAT_ID": 66852, "ELEMENT_SET_NO": 999, "REV_AT_EPOCH": 213, "BSTAR": -0.0080307929, "MEAN_MOTION_DOT": -0.01320948, "MEAN_MOTION_DDOT": 0}, "tle": {"line1": "1 66852U 25281E   25351.33339120 -.01320948  00000+0 -80308-2 0  9994", "line2": "2 66852  43.0006  94.0878 0001474 274.9715 210.7861 15.79057703  2134"}}, "geometry": {"type": "Point", "coordinates": [147.69880752068718, 37.38509328495719]}}, {"type": "Feature", "properties": {"norad_id": 66853, "name": "STARLINK-35986", "group": "last-30-days", "lat": 38.330886116299844, "lon": 150.64745316521342, "alt_km": 330.28649928332015, "timestamp": "2025-12-17T13:48:36.280790+00:00", "meta": {"OBJECT_NAME": "STARLINK-35986", "OBJECT_ID": "2025-281F", "EPOCH": "2025-12-17T06:00:00.999648", "MEAN_MOTION": 15.79159565, "ECCENTRICITY": 0.00015225, "INCLINATION": 43.0004, "RA_OF_ASC_NODE": 94.5889, "ARG_OF_PERICENTER": 273.2338, "MEAN_ANOMALY": 100.5995, "EPHEMERIS_TYPE": 0, "CLASSIFICATION_TYPE": "U", "NORAD_CAT_ID": 66853, "ELEMENT_SET_NO": 999, "REV_AT_EPOCH": 212, "BSTAR": -0.007920359, "MEAN_MOTION_DOT": -0.01286509, "MEAN_MOTION_DDOT": 0}, "tle": {"line1": "1 66853U 25281F   25351.25001157 -.01286509  00000+0 -79204-2 0  9999", "line2": "2 66853  43.0004  94.5889 0001522 273.2338 100.5995 15.79159565  2129"}}, "geometry": {"type": "Point", "coordinates": [150.64745316521342, 38.330886116299844]}}, {"type": "Feature", "properties": {"norad_id": 66854, "name": "STARLINK-36087", "group": "last-30-days", "lat": 39.17530669614169, "lon": 153.57817615163054, "alt_km": 330.6799373652975, "timestamp": "2025-12-17T13:48:36.280802+00:00", "meta": {"OBJECT_NAME": "STARLINK-36087", "OBJECT_ID": "2025-281G", "EPOCH": "2025-12-17T06:00:00.999648", "MEAN_MOTION": 15.79049184, "ECCENTRICITY": 0.00016983, "INCLINATION": 43.0005, "RA_OF_ASC_NODE": 94.5823, "ARG_OF_PERICENTER": 267.5037, "MEAN_ANOMALY": 108.9038, "EPHEMERIS_TYPE": 0, "CLASSIFICATION_TYPE": "U", "NORAD_CAT_ID": 66854, "ELEMENT_SET_NO": 999, "REV_AT_EPOCH": 212, "BSTAR": -0.0080304794, "MEAN_MOTION_DOT": -0.01320565, "MEAN_MOTION_DDOT": 0}, "tle": {"line1": "1 66854U 25281G   25351.25001157 -.01320565  00000+0 -80305-2 0  9995", "line2": "2 66854  43.0005  94.5823 0001698 267.5037 108.9038 15.79049184  2120"}}, "geometry": {"type": "Point", "coordinates": [153.57817615163054, 39.17530669614169]}}, {"type": "Feature", "properties": {"norad_id": 66855, "name": "STARLINK-36090", "group": "last-30-days", "lat": 39.881715501865386, "lon": 156.3191474214182, "alt_km": 330.67591271095625, "timestamp": "2025-12-17T13:48:36.280811+00:00", "meta": {"OBJECT_NAME": "STARLINK-36090", "OBJECT_ID": "2025-281H", "EPOCH": "2025-12-17T06:00:00.999648", "MEAN_MOTION": 15.78983497, "ECCENTRICITY": 0.00016114, "INCLINATION": 43.0005, "RA_OF_ASC_NODE": 94.5765, "ARG_OF_PERICENTER": 273.9409, "MEAN_ANOMALY": 104.7761, "EPHEMERIS_TYPE": 0, "CLASSIFICATION_TYPE": "U", "NORAD_CAT_ID": 66855, "ELEMENT_SET_NO": 999, "REV_AT_EPOCH": 200, "BSTAR": -0.0081064172, "MEAN_MOTION_DOT": -0.01328106, "MEAN_MOTION_DDOT": 0}, "tle": {"line1": "1 66855U 25281H   25351.25001157 -.01328106  00000+0 -81064-2 0  9998", "line2": "2 66855  43.0005  94.5765 0001611 273.9409 104.7761 15.78983497  2002"}}, "geometry": {"type": "Point", "coordinates": [156.3191474214182, 39.881715501865386]}}]}